NORAD_CAT_ID,OBJECT_NAME,OBJECT_TYPE,EPOCH,MEAN_MOTION,ECCENTRICITY,INCLINATION,RA_OF_ASC_NODE,ARG_OF_PERICENTER,MEAN_ANOMALY,BSTAR,MEAN_MOTION_DOT,MEAN_MOTION_DDOT,TLE_LINE0,TLE_LINE1,TLE_LINE2,SEMIMAJOR_AXIS,PERIOD,APOGEE,PERIGEE,DECAYED
55948.0,STARLINK-5900,PAYLOAD,2023-05-04 21:23:52,15.69920267,0.0003625,70.0014,45.7572,259.637,100.4417,2.8251e-05,3.185e-05,0.0,0 STARLINK-5900,1 55948U 23037AL  23124.89158380  .00003185  00000-0  28251-4 0  9999,2 55948  70.0014  45.7572 0003625 259.6370 100.4417 15.69920267  8083,6737.262,91.724,361.569,356.685,0.0
55948.0,STARLINK-5900,PAYLOAD,2023-05-05 05:02:37,15.69951282,0.0003886,69.9995,44.8618,259.8408,100.235,-4.629e-05,-5.782e-05,0.0,0 STARLINK-5900,1 55948U 23037AL  23125.21015675 -.00005782  00000-0 -46290-4 0  9995,2 55948  69.9995  44.8618 0003886 259.8408 100.2350 15.69951282  8133,6737.173,91.723,361.656,356.42,0.0
55948.0,STARLINK-5900,PAYLOAD,2023-05-05 20:20:09,15.69925995,0.0003462,69.9998,43.0714,255.1939,104.8874,1.1398e-05,1.158e-05,0.0,0 STARLINK-5900,1 55948U 23037AL  23125.84733181  .00001158  00000-0  11398-4 0  9995,2 55948  69.9998  43.0714 0003462 255.1939 104.8874 15.69925995  8236,6737.246,91.724,361.443,356.778,0.0
55948.0,STARLINK-5900,PAYLOAD,2023-05-06 03:58:54,15.69931617,0.0003526,69.9994,42.1754,257.4607,102.6194,8.3818e-06,7.95e-06,0.0,0 STARLINK-5900,1 55948U 23037AL  23126.16591240  .00000795  00000-0  83818-5 0  9992,2 55948  69.9994  42.1754 0003526 257.4607 102.6194 15.69931617  7940,6737.23,91.724,361.47,356.719,0.0
55948.0,STARLINK-5900,PAYLOAD,2023-05-06 20:48:10,15.6993691,0.000362,69.9991,40.2037,267.3118,92.7664,2.3776e-05,2.648e-05,0.0,0 STARLINK-5900,1 55948U 23037AL  23126.86678836  .00002648  00000-0  23776-4 0  9991,2 55948  69.9991  40.2037 0003620 267.3118  92.7664 15.69936910  8394,6737.214,91.723,361.518,356.641,0.0
55948.0,STARLINK-5900,PAYLOAD,2023-05-07 04:26:58,15.69911564,0.0003589,69.9995,39.3095,265.6961,94.3825,-4.293e-06,-7.29e-06,0.0,0 STARLINK-5900,1 55948U 23037AL  23127.18539398 -.00000729  00000-0 -42930-5 0  9990,2 55948  69.9995  39.3095 0003589 265.6961  94.3825 15.69911564  8443,6737.287,91.725,361.57,356.734,0.0
55948.0,STARLINK-5900,PAYLOAD,2023-05-07 19:44:28,15.69927954,0.0003905,69.9978,37.5156,272.6934,87.3815,7.7138e-06,7.15e-06,0.0,0 STARLINK-5900,1 55948U 23037AL  23127.82254979  .00000715  00000-0  77138-5 0  9991,2 55948  69.9978  37.5156 0003905 272.6934  87.3815 15.69927954  8544,6737.24,91.724,361.736,356.474,0.0
55948.0,STARLINK-5900,PAYLOAD,2023-05-07 21:16:13,15.69924848,0.0004248,69.9997,37.3385,275.6018,84.4693,2.5619e-06,9.5e-07,0.0,0 STARLINK-5900,1 55948U 23037AL  23127.88626606  .00000095  00000-0  25619-5 0  9995,2 55948  69.9997  37.3385 0004248 275.6018  84.4693 15.69924848  8219,6737.249,91.724,361.976,356.252,0.0
55948.0,STARLINK-5900,PAYLOAD,2023-05-08 20:12:30,15.69938369,0.0003427,70.0007,34.6558,263.9405,96.14,-2.2197e-05,-2.882e-05,0.0,0 STARLINK-5900,1 55948U 23037AL  23128.84201603 -.00002882  00000-0 -22197-4 0  9993,2 55948  70.0007  34.6558 0003427 263.9405  96.1400 15.69938369  8369,6737.21,91.723,361.384,356.766,0.0
55948.0,STARLINK-5900,PAYLOAD,2023-05-09 03:51:15,15.69940347,0.0003514,69.9994,33.757,253.7999,106.281,-1.3242e-05,-1.806e-05,0.0,0 STARLINK-5900,1 55948U 23037AL  23129.16059247 -.00001806  00000-0 -13242-4 0  9990,2 55948  69.9994  33.7570 0003514 253.7999 106.2810 15.69940347  8410,6737.205,91.723,361.437,356.702,0.0
55948.0,STARLINK-5900,PAYLOAD,2023-05-10 02:47:32,15.69926406,0.0003477,70.0006,31.0701,267.706,92.3737,1.7412e-05,1.882e-05,0.0,0 STARLINK-5900,1 55948U 23037AL  23130.11635306  .00001882  00000-0  17412-4 0  9998,2 55948  70.0006  31.0701 0003477 267.7060  92.3737 15.69926406  8565,6737.245,91.724,361.452,356.767,0.0
55948.0,STARLINK-5900,PAYLOAD,2023-05-10 19:36:49,15.6992704,0.0003428,70.0007,29.0986,263.7033,96.3772,2.9897e-05,3.384e-05,0.0,0 STARLINK-5900,1 55948U 23037AL  23130.81723693  .00003384  00000-0  29897-4 0  9991,2 55948  70.0007  29.0986 0003428 263.7033  96.3772 15.69927040  8670,6737.243,91.724,361.417,356.798,0.0
55948.0,STARLINK-5900,PAYLOAD,2023-05-11 01:43:49,15.69934818,0.000339,70.0008,28.3822,262.6728,97.4082,2.5722e-05,2.883e-05,0.0,0 STARLINK-5900,1 55948U 23037AL  23131.07209948  .00002883  00000-0  25722-4 0  9998,2 55948  70.0008  28.3822 0003390 262.6728  97.4082 15.69934818  9059,6737.22,91.724,361.369,356.802,0.0
55948.0,STARLINK-5900,PAYLOAD,2023-05-11 03:15:35,15.69920039,0.0003703,70.0004,28.2043,265.6577,94.4196,-7.2315e-06,-1.082e-05,0.0,0 STARLINK-5900,1 55948U 23037AL  23131.13582248 -.00001082  00000-0 -72315-5 0  9995,2 55948  70.0004  28.2043 0003703 265.6577  94.4196 15.69920039  9066,6737.263,91.724,361.623,356.633,0.0
55948.0,STARLINK-5900,PAYLOAD,2023-05-11 23:08:21,15.69940622,0.0003504,70.0009,25.8737,261.4991,98.5808,4.2068e-05,4.852e-05,0.0,0 STARLINK-5900,1 55948U 23037AL  23131.96413351  .00004852  00000-0  42068-4 0  9991,2 55948  70.0009  25.8737 0003504 261.4991  98.5808 15.69940622  9196,6737.204,91.723,361.43,356.708,0.0
55948.0,STARLINK-5900,PAYLOAD,2023-05-12 02:11:52,15.69917049,0.0003126,70.0012,25.5163,264.5678,95.5162,-5.7236e-06,-9e-06,0.0,0 STARLINK-5900,1 55948U 23037AL  23132.09157779 -.00000900  00000-0 -57236-5 0  9991,2 55948  70.0012  25.5163 0003126 264.5678  95.5162 15.69917049  8877,6737.271,91.725,361.242,357.03,0.0
55948.0,STARLINK-5900,PAYLOAD,2023-05-12 17:29:23,15.6992533,0.0003517,70.0009,23.7256,266.3982,93.6811,4.1944e-06,2.92e-06,0.0,0 STARLINK-5900,1 55948U 23037AL  23132.72874045  .00000292  00000-0  41944-5 0  9994,2 55948  70.0009  23.7256 0003517 266.3982  93.6811 15.69925330  9310,6737.248,91.724,361.482,356.743,0.0
55948.0,STARLINK-5900,PAYLOAD,2023-05-13 02:39:53,15.69933863,0.0003123,70.0012,22.6489,259.3208,100.7636,3.4879e-05,3.985e-05,0.0,0 STARLINK-5900,1 55948U 23037AL  23133.11103823  .00003985  00000-0  34879-4 0  9997,2 55948  70.0012  22.6489 0003123 259.3208 100.7636 15.69933863  9377,6737.223,91.724,361.192,356.984,0.0
55948.0,STARLINK-5900,PAYLOAD,2023-05-13 19:29:10,15.69920858,0.0003042,70.0025,20.6809,239.2355,120.8541,-9.859e-06,-1.397e-05,0.0,0 STARLINK-5900,1 55948U 23037AL  23133.81192684 -.00001397  00000-0 -98590-5 0  9995,2 55948  70.0025  20.6809 0003042 239.2355 120.8541 15.69920858  9485,6737.26,91.724,361.175,357.076,0.0
55948.0,STARLINK-5900,PAYLOAD,2023-05-14 01:36:10,15.6993358,0.0003673,70.0006,19.9638,268.9238,91.1537,2.8352e-05,3.199e-05,0.0,0 STARLINK-5900,1 55948U 23037AL  23134.06679166  .00003199  00000-0  28352-4 0  9996,2 55948  70.0006  19.9638 0003673 268.9238  91.1537 15.69933580  9520,6737.224,91.724,361.564,356.614,0.0
55948.0,STARLINK-5900,PAYLOAD,2023-05-14 19:57:12,15.69923713,0.0003436,70.0004,17.8143,265.3006,94.7798,8.6288e-06,8.25e-06,0.0,0 STARLINK-5900,1 55948U 23037AL  23134.83139525  .00000825  00000-0  86288-5 0  9997,2 55948  70.0004  17.8143 0003436 265.3006  94.7798 15.69923713  9645,6737.252,91.724,361.432,356.802,0.0
55948.0,STARLINK-5900,PAYLOAD,2023-05-15 09:42:58,15.69922897,0.0003226,70.0013,16.2004,258.5786,101.5047,1.8807e-05,2.049e-05,0.0,0 STARLINK-5900,1 55948U 23037AL  23135.40484576  .00002049  00000-0  18807-4 0  9991,2 55948  70.0013  16.2004 0003226 258.5786 101.5047 15.69922897  9398,6737.255,91.724,361.293,356.946,0.0
55948.0,STARLINK-5900,PAYLOAD,2023-05-15 17:21:44,15.69922853,0.0003313,69.9984,15.3049,259.7936,100.2886,-2.1416e-06,-4.7e-06,0.0,0 STARLINK-5900,1 55948U 23037AL  23135.72343401 -.00000470  00000-0 -21416-5 0  9996,2 55948  69.9984  15.3049 0003313 259.7936 100.2886 15.69922853  9443,6737.255,91.724,361.352,356.888,0.0
55948.0,STARLINK-5900,PAYLOAD,2023-05-16 01:00:29,15.69927164,0.0003213,69.9987,14.4091,258.1467,101.9369,5.7921e-06,4.84e-06,0.0,0 STARLINK-5900,1 55948U 23037AL  23136.04201308  .00000484  00000-0  57921-5 0  9994,2 55948  69.9987  14.4091 0003213 258.1467 101.9369 15.69927164  9831,6737.242,91.724,361.272,356.943,0.0
55948.0,STARLINK-5900,PAYLOAD,2023-05-17 01:28:33,15.69919684,0.0003644,69.9982,11.5419,338.7588,21.3456,1.5006e-05,1.592e-05,0.0,0 STARLINK-5900,1 55948U 23037AL  23137.06149559  .00001592  00000-0  15006-4 0  9994,2 55948  69.9982  11.5419 0003644 338.7588  21.3456 15.69919684  9992,6737.264,91.724,361.584,356.674,0.0
55948.0,STARLINK-5900,PAYLOAD,2023-05-17 04:32:51,15.69244354,0.0002428,69.9993,11.1906,206.873,153.234,-0.00075769,-0.00087859,0.0,0 STARLINK-5900,1 55948U 23037AL  23137.18948469 -.00087859  00000-0 -75769-3 0  9997,2 55948  69.9993  11.1906 0002428 206.8730 153.2340 15.69244354 10011,6739.197,91.764,362.698,359.425,0.0
55948.0,STARLINK-5900,PAYLOAD,2023-05-17 18:19:38,15.68723498,0.0001635,70.0007,9.5814,38.243,321.8881,-0.0011534,-0.00130135,0.0,0 STARLINK-5900,1 55948U 23037AL  23137.76363852 -.00130135  00000-0 -11534-2 0  9993,2 55948  70.0007   9.5814 0001635  38.2430 321.8881 15.68723498 10105,6740.688,91.794,363.655,361.451,0.0
55948.0,STARLINK-5900,PAYLOAD,2023-05-18 01:56:33,15.69986735,0.0003915,69.9976,8.6778,249.7756,110.3018,-5.8664e-06,-9.21e-06,0.0,0 STARLINK-5900,1 55948U 23037AL  23138.08094583 -.00000921  00000-0 -58664-5 0  9998,2 55948  69.9976   8.6778 0003915 249.7756 110.3018 15.69986735 10153,6737.072,91.721,361.575,356.299,0.0
55948.0,STARLINK-5900,PAYLOAD,2023-05-18 06:00:00,15.69950613,0.0003646,70.0005,8.2015,268.019,327.2725,-0.00048723,-0.0005846,0.0,0 STARLINK-5900,1 55948U 23037AL  23138.25001157 -.00058460  00000-0 -48723-3 0  9996,2 55948  70.0005   8.2015 0003646 268.0190 327.2725 15.69950613 10178,6737.175,91.723,361.497,356.584,0.0
55948.0,STARLINK-5900,PAYLOAD,2023-05-18 14:10:35,15.69922713,0.0003853,69.9979,7.2436,266.18,93.8955,7.2077e-06,6.54e-06,0.0,0 STARLINK-5900,1 55948U 23037AL  23138.59068293  .00000654  00000-0  72077-5 0  9998,2 55948  69.9979   7.2436 0003853 266.1800  93.8955 15.69922713 10236,6737.255,91.724,361.716,356.524,0.0
